[{"OBJECT_NAME":"ASTROCAST-0404","OBJECT_ID":"2023-001DH","EPOCH":"2026-03-09T19:24:02.920896","MEAN_MOTION":15.26309833,"ECCENTRICITY":0.00068478,"INCLINATION":97.5646,"RA_OF_ASC_NODE":161.5422,"ARG_OF_PERICENTER":1.1317,"MEAN_ANOMALY":358.9936,"EPHEMERIS_TYPE":0,"CLASSIFICATION_TYPE":"U","NORAD_CAT_ID":55112,"ELEMENT_SET_NO":999,"REV_AT_EPOCH":12936,"BSTAR":0.00034435555,"MEAN_MOTION_DOT":8.87e-5,"MEAN_MOTION_DDOT":0},{"OBJECT_NAME":"STARLINK-31553","OBJECT_ID":"2024-060R","EPOCH":"2026-03-09T13:37:49.479456","MEAN_MOTION":15.27570853,"ECCENTRICITY":0.0001887,"INCLINATION":43.0043,"RA_OF_ASC_NODE":253.6587,"ARG_OF_PERICENTER":285.2179,"MEAN_ANOMALY":74.8464,"EPHEMERIS_TYPE":0,"CLASSIFICATION_TYPE":"U","NORAD_CAT_ID":59363,"ELEMENT_SET_NO":999,"REV_AT_EPOCH":11012,"BSTAR":1.2696e-5,"MEAN_MOTION_DOT":8.7e-7,"MEAN_MOTION_DDOT":0}]
